STARLINK-3738           
1 52117U 22029AF  25144.72029480  .00002436  00000+0  17110-3 0  9996
2 52117  53.2175 296.3524 0001174  99.2045 260.9080 15.08833250177177
STARLINK-3743           
1 52118U 22029AG  25144.79757968  .00000184  00000+0  29650-4 0  9994
2 52118  53.2195 296.0067 0001420  92.7970 267.3185 15.08834823177172
STARLINK-3558           
1 52119U 22029AH  25144.64669891 -.00000207  00000+0  50649-5 0  9996
2 52119  53.2175 296.6826 0001249  90.1380 269.9756 15.08833745177158
STARLINK-3534           
1 52120U 22029AJ  25144.65773733  .00000801  00000+0  68438-4 0  9993
2 52120  53.2182 296.6346 0001195  91.8456 268.2673 15.08836790177161
STARLINK-3678           
1 52121U 22029AK  25144.82794252  .00000440  00000+0  45721-4 0  9991
2 52121  53.2190 285.8712 0001405  91.9185 268.1968 15.08831716177318
STARLINK-3726           
1 52122U 22029AL  25144.71661602  .00000233  00000+0  32701-4 0  9996
2 52122  53.2179 296.3708 0001244  91.1687 268.9448 15.08836952177169
STARLINK-3725           
1 52123U 22029AM  25144.67063256 -.00000997  00000+0 -44581-4 0  9991
2 52123  53.2189 286.4015 0001293  92.4688 267.6452 15.08836802177302
STARLINK-3727           
1 52125U 22029AP  25144.68440959  .00000524  00000+0  51034-4 0  9998
2 52125  53.2178 286.5144 0001262  92.1342 267.9795 15.08835429177303
STARLINK-3732           
1 52126U 22029AQ  25144.62553889  .00001062  00000+0  84841-4 0  9990
2 52126  53.2195 286.7845 0001484 109.1815 250.9338 15.08833991177287
STARLINK-3715           
1 52127U 22029AR  25144.81321494 -.00000289  00000+0 -72049-7 0  9999
2 52127  53.2179 285.9376 0001320  92.0246 268.0897 15.08836612177314
STARLINK-3661           
1 52129U 22029AT  25144.67338526  .00003822  00000+0  25817-3 0  9990
2 52129  53.2184 286.5662 0001466 102.8029 257.3127 15.08829461177307
STARLINK-3711           
1 52131U 22029AV  25144.66969325 -.00000135  00000+0  95979-5 0  9992
2 52131  53.2181 286.5823 0001472  93.5081 266.6080 15.08836509177309
STARLINK-3718           
1 52132U 22029AW  25144.80953056 -.00000366  00000+0 -48988-5 0  9998
2 52132  53.2184 285.9535 0001299  96.5030 263.6110 15.08845971177326
STARLINK-3707           
1 52133U 22029AX  25144.66233697 -.00000557  00000+0 -16945-4 0  9994
2 52133  53.2183 286.6155 0001085  75.7616 284.3497 15.08837968177307
STARLINK-3721           
1 52134U 22029AY  25144.66601523  .00000031  00000+0  20009-4 0  9993
2 52134  53.2185 286.5987 0001330  90.4120 269.7025 15.08836670177302
STARLINK-3729           
1 52135U 22029AZ  25144.71849095  .00000564  00000+0  53540-4 0  9995
2 52135  53.2178 286.3713 0001258  88.4916 271.6220 15.08843049177317
STARLINK-3720           
1 52136U 22029BA  25144.65865339  .00000570  00000+0  53902-4 0  9997
2 52136  53.2182 286.6309 0001517  91.7165 268.4001 15.08842786177305
STARLINK-3733           
1 52137U 22029BB  25144.71385376 -.00003380  00000+0 -19428-3 0  9991
2 52137  53.2177 286.3824 0001480  93.0063 267.1099 15.08855985177319
STARLINK-3723           
1 52138U 22029BC  25144.65497840  .00000016  00000+0  19111-4 0  9996
2 52138  53.2189 286.6470 0001360  90.8849 269.2299 15.08837071177307
STARLINK-3730           
1 52139U 22029BD  25144.70191316 -.00000934  00000+0 -40622-4 0  9994
2 52139  53.2174 296.4374 0001624 128.2260 231.8878 15.08824192177162
STARLINK-3682           
1 52140U 22029BE  25144.64393380  .00000225  00000+0  32229-4 0  9999
2 52140  53.2172 286.6954 0001257  89.9380 270.1757 15.08840620177307
STARLINK-3761           
1 52262U 22041B   25144.90520846 -.00000344  00000+0 -35505-5 0  9991
2 52262  53.2178 325.4747 0001272  87.5214 272.5924 15.08839820170762
STARLINK-3786           
1 52263U 22041C   25144.71017322  .00000170  00000+0  28767-4 0  9997
2 52263  53.2171 326.3978 0001287  86.3356 273.7783 15.08839266170739
STARLINK-3795           
1 52264U 22041D   25144.90155707  .00000909  00000+0  75256-4 0  9994
2 52264  53.2176 325.5393 0001781  91.8271 268.2925 15.08816512171976
STARLINK-3740           
1 52265U 22041E   25144.76537388  .00000543  00000+0  52178-4 0  9990
2 52265  53.2179 326.1518 0001319  87.5486 272.5658 15.08840447170742
STARLINK-3739           
1 52266U 22041F   25144.76169391  .00000354  00000+0  40308-4 0  9998
2 52266  53.2176 326.1691 0001308  90.3576 269.7566 15.08840647170740
STARLINK-3748           
1 52267U 22041G   25144.75801594  .00000299  00000+0  36876-4 0  9999
2 52267  53.2184 326.1916 0001403  85.1987 274.9165 15.08842161170740
STARLINK-3746           
1 52268U 22041H   25144.80584791  .00000000  00000+0  18121-4 0  9996
2 52268  53.2187 325.8938 0001375  92.3366 267.7784 15.08835664170751
STARLINK-3791           
1 52269U 22041J   25144.82057779  .00005544  00000+0  36637-3 0  9999
2 52269  53.2185 325.9046 0001456  91.2578 268.8581 15.08814488171977
STARLINK-3804           
1 52270U 22041K   25144.74697736  .00000805  00000+0  68682-4 0  9996
2 52270  53.2189 326.2639 0001291  93.0243 267.0896 15.08841664170741
