OBJECT_NAME,OBJECT_ID,EPOCH,MEAN_MOTION,ECCENTRICITY,INCLINATION,RA_OF_ASC_NODE,ARG_OF_PERICENTER,MEAN_ANOMALY,EPHEMERIS_TYPE,CLASSIFICATION_TYPE,NORAD_CAT_ID,ELEMENT_SET_NO,REV_AT_EPOCH,BSTAR,MEAN_MOTION_DOT,MEAN_MOTION_DDOT
STARLINK-3738,2022-029AF,2025-05-24T17:17:13.470720,15.08833250,.0001174,53.2175,296.3524,99.2045,260.9080,0,U,52117,999,17717,.1711E-3,.2436E-4,0
STARLINK-3743,2022-029AG,2025-05-24T19:08:30.884352,15.08834823,.000142,53.2195,296.0067,92.7970,267.3185,0,U,52118,999,17717,.2965E-4,.184E-5,0
STARLINK-3558,2022-029AH,2025-05-24T15:31:14.785824,15.08833745,.0001249,53.2175,296.6826,90.1380,269.9756,0,U,52119,999,17715,.50649E-5,-.207E-5,0
STARLINK-3534,2022-029AJ,2025-05-24T15:47:08.505312,15.08836790,.0001195,53.2182,296.6346,91.8456,268.2673,0,U,52120,999,17716,.68438E-4,.801E-5,0
STARLINK-3678,2022-029AK,2025-05-24T19:52:14.233728,15.08831716,.0001405,53.2190,285.8712,91.9185,268.1968,0,U,52121,999,17731,.45721E-4,.44E-5,0
STARLINK-3726,2022-029AL,2025-05-24T17:11:55.624128,15.08836952,.0001244,53.2179,296.3708,91.1687,268.9448,0,U,52122,999,17716,.32701E-4,.233E-5,0
STARLINK-3725,2022-029AM,2025-05-24T16:05:42.653184,15.08836802,.0001293,53.2189,286.4015,92.4688,267.6452,0,U,52123,999,17730,-.44581E-4,-.997E-5,0
STARLINK-3727,2022-029AP,2025-05-24T16:25:32.988576,15.08835429,.0001262,53.2178,286.5144,92.1342,267.9795,0,U,52125,999,17730,.51034E-4,.524E-5,0
STARLINK-3732,2022-029AQ,2025-05-24T15:00:46.560096,15.08833991,.0001484,53.2195,286.7845,109.1815,250.9338,0,U,52126,999,17728,.84841E-4,.1062E-4,0
STARLINK-3715,2022-029AR,2025-05-24T19:31:01.770816,15.08836612,.000132,53.2179,285.9376,92.0246,268.0897,0,U,52127,999,17731,-.72049E-7,-.289E-5,0
STARLINK-3661,2022-029AT,2025-05-24T16:09:40.486464,15.08829461,.0001466,53.2184,286.5662,102.8029,257.3127,0,U,52129,999,17730,.25817E-3,.3822E-4,0
STARLINK-3711,2022-029AV,2025-05-24T16:04:21.496800,15.08836509,.0001472,53.2181,286.5823,93.5081,266.6080,0,U,52131,999,17730,.95979E-5,-.135E-5,0
STARLINK-3718,2022-029AW,2025-05-24T19:25:43.440384,15.08845971,.0001299,53.2184,285.9535,96.5030,263.6110,0,U,52132,999,17732,-.48988E-5,-.366E-5,0
STARLINK-3707,2022-029AX,2025-05-24T15:53:45.914208,15.08837968,.0001085,53.2183,286.6155,75.7616,284.3497,0,U,52133,999,17730,-.16945E-4,-.557E-5,0
STARLINK-3721,2022-029AY,2025-05-24T15:59:03.715872,15.08836670,.000133,53.2185,286.5987,90.4120,269.7025,0,U,52134,999,17730,.20009E-4,.31E-6,0
STARLINK-3729,2022-029AZ,2025-05-24T17:14:37.618080,15.08843049,.0001258,53.2178,286.3713,88.4916,271.6220,0,U,52135,999,17731,.5354E-4,.564E-5,0
STARLINK-3720,2022-029BA,2025-05-24T15:48:27.652896,15.08842786,.0001517,53.2182,286.6309,91.7165,268.4001,0,U,52136,999,17730,.53902E-4,.57E-5,0
STARLINK-3733,2022-029BB,2025-05-24T17:07:56.964864,15.08855985,.000148,53.2177,286.3824,93.0063,267.1099,0,U,52137,999,17731,-.19428E-3,-.338E-4,0
STARLINK-3723,2022-029BC,2025-05-24T15:43:10.133760,15.08837071,.000136,53.2189,286.6470,90.8849,269.2299,0,U,52138,999,17730,.19111E-4,.16E-6,0
STARLINK-3730,2022-029BD,2025-05-24T16:50:45.297024,15.08824192,.0001624,53.2174,296.4374,128.2260,231.8878,0,U,52139,999,17716,-.40622E-4,-.934E-5,0
STARLINK-3682,2022-029BE,2025-05-24T15:27:15.880320,15.08840620,.0001257,53.2172,286.6954,89.9380,270.1757,0,U,52140,999,17730,.32229E-4,.225E-5,0
STARLINK-3761,2022-041B,2025-05-24T21:43:30.010944,15.08839820,.0001272,53.2178,325.4747,87.5214,272.5924,0,U,52262,999,17076,-.35505E-5,-.344E-5,0
STARLINK-3786,2022-041C,2025-05-24T17:02:38.966208,15.08839266,.0001287,53.2171,326.3978,86.3356,273.7783,0,U,52263,999,17073,.28767E-4,.17E-5,0
STARLINK-3795,2022-041D,2025-05-24T21:38:14.530848,15.08816512,.0001781,53.2176,325.5393,91.8271,268.2925,0,U,52264,999,17197,.75256E-4,.909E-5,0
STARLINK-3740,2022-041E,2025-05-24T18:22:08.303232,15.08840447,.0001319,53.2179,326.1518,87.5486,272.5658,0,U,52265,999,17074,.52178E-4,.543E-5,0
STARLINK-3739,2022-041F,2025-05-24T18:16:50.353824,15.08840647,.0001308,53.2176,326.1691,90.3576,269.7566,0,U,52266,999,17074,.40308E-4,.354E-5,0
STARLINK-3748,2022-041G,2025-05-24T18:11:32.577216,15.08842161,.0001403,53.2184,326.1916,85.1987,274.9165,0,U,52267,999,17074,.36876E-4,.299E-5,0
STARLINK-3746,2022-041H,2025-05-24T19:20:25.259424,15.08835664,.0001375,53.2187,325.8938,92.3366,267.7784,0,U,52268,999,17075,.18121E-4,0,0
STARLINK-3791,2022-041J,2025-05-24T19:41:37.921056,15.08814488,.0001456,53.2185,325.9046,91.2578,268.8581,0,U,52269,999,17197,.36637E-3,.5544E-4,0
STARLINK-3804,2022-041K,2025-05-24T17:55:38.843904,15.08841664,.0001291,53.2189,326.2639,93.0243,267.0896,0,U,52270,999,17074,.68682E-4,.805E-5,0
